{"type": "FeatureCollection", "features": [ {"type": "Feature", "properties": {"norad_id": 36180, "name": "FENGYUN 1C DEB", "group": "fengyun-1c-debris", "lat": 29.77317586731107, "lon": -133.1813129608311, "alt_km": 827.4429290890312, "timestamp": "2025-12-03T22:42:32.921921+00:00", "meta": {"OBJECT_NAME": "FENGYUN 1C DEB", "OBJECT_ID": "1999-025DTD", "EPOCH": "2025-11-17T22:19:25.486176", "MEAN_MOTION": 14.20613905, "ECCENTRICITY": 0.02130555, "INCLINATION": 98.4573, "RA_OF_ASC_NODE": 26.5989, "ARG_OF_PERICENTER": 102.8674, "MEAN_ANOMALY": 259.6397, "EPHEMERIS_TYPE": 0, "CLASSIFICATION_TYPE": "U", "NORAD_CAT_ID": 36180, "ELEMENT_SET_NO": 999, "REV_AT_EPOCH": 70231, "BSTAR": 0.00075960247, "MEAN_MOTION_DOT": 2.013e-05, "MEAN_MOTION_DDOT": 0}, "tle": {"line1": "1 36180U 99025DTD 25321.93015609  .00002013  00000+0  75960-3 0  9994", "line2": "2 36180  98.4573  26.5989 0213055 102.8674 259.6397 14.20613905702314"}}, "geometry": {"type": "Point", "coordinates": [-133.1813129608311, 29.77317586731107]}}, {"type": "Feature", "properties": {"norad_id": 36182, "name": "FENGYUN 1C DEB", "group": "fengyun-1c-debris", "lat": -56.24863805094486, "lon": -81.09473464906536, "alt_km": 797.4249859975571, "timestamp": "2025-12-03T22:42:32.921930+00:00", "meta": {"OBJECT_NAME": "FENGYUN 1C DEB", "OBJECT_ID": "1999-025DTF", "EPOCH": "2025-12-03T06:14:16.053792", "MEAN_MOTION": 14.34588285, "ECCENTRICITY": 0.0021165, "INCLINATION": 99.0879, "RA_OF_ASC_NODE": 264.3247, "ARG_OF_PERICENTER": 102.3158, "MEAN_ANOMALY": 258.0397, "EPHEMERIS_TYPE": 0, "CLASSIFICATION_TYPE": "U", "NORAD_CAT_ID": 36182, "ELEMENT_SET_NO": 999, "REV_AT_EPOCH": 87821, "BSTAR": 0.0021717, "MEAN_MOTION_DOT": 6.107e-05, "MEAN_MOTION_DDOT": 0}, "tle": {"line1": "1 36182U 99025DTF 25337.25990803  .00006107  00000+0  21717-2 0  9994", "line2": "2 36182  99.0879 264.3247 0021165 102.3158 258.0397 14.34588285878215"}}, "geometry": {"type": "Point", "coordinates": [-81.09473464906536, -56.24863805094486]}}, {"type": "Feature", "properties": {"norad_id": 36186, "name": "FENGYUN 1C DEB", "group": "fengyun-1c-debris", "lat": -41.45922011846537, "lon": 11.944540726208874, "alt_km": 493.78803321552095, "timestamp": "2025-12-03T22:42:32.921939+00:00", "meta": {"OBJECT_NAME": "FENGYUN 1C DEB", "OBJECT_ID": "1999-025DTK", "EPOCH": "2025-11-12T08:52:41.965824", "MEAN_MOTION": 15.00729098, "ECCENTRICITY": 0.00172478, "INCLINATION": 98.9906, "RA_OF_ASC_NODE": 174.6895, "ARG_OF_PERICENTER": 41.2051, "MEAN_ANOMALY": 133.808, "EPHEMERIS_TYPE": 0, "CLASSIFICATION_TYPE": "U", "NORAD_CAT_ID": 36186, "ELEMENT_SET_NO": 999, "REV_AT_EPOCH": 61113, "BSTAR": 0.034725409, "MEAN_MOTION_DOT": 0.00466454, "MEAN_MOTION_DDOT": 0}, "tle": {"line1": "1 36186U 99025DTK 25316.36993016  .00466454  00000+0  34725-1 0  9993", "line2": "2 36186  98.9906 174.6895 0017247  41.2051 133.8080 15.00729098611137"}}, "geometry": {"type": "Point", "coordinates": [11.944540726208874, -41.45922011846537]}}, {"type": "Feature", "properties": {"norad_id": 36188, "name": "FENGYUN 1C DEB", "group": "fengyun-1c-debris", "lat": -81.39844047778972, "lon": 165.18843685534821, "alt_km": 683.5688075731614, "timestamp": "2025-12-03T22:42:32.921948+00:00", "meta": {"OBJECT_NAME": "FENGYUN 1C DEB", "OBJECT_ID": "1999-025DTM", "EPOCH": "2025-12-01T05:20:13.473024", "MEAN_MOTION": 14.6025584, "ECCENTRICITY": 0.0047349, "INCLINATION": 98.5854, "RA_OF_ASC_NODE": 75.2295, "ARG_OF_PERICENTER": 340.7793, "MEAN_ANOMALY": 19.1618, "EPHEMERIS_TYPE": 0, "CLASSIFICATION_TYPE": "U", "NORAD_CAT_ID": 36188, "ELEMENT_SET_NO": 999, "REV_AT_EPOCH": 87884, "BSTAR": 0.002895, "MEAN_MOTION_DOT": 0.00014165, "MEAN_MOTION_DDOT": 0}, "tle": {"line1": "1 36188U 99025DTM 25335.22237816  .00014165  00000+0  28950-2 0  9992", "line2": "2 36188  98.5854  75.2295 0047349 340.7793  19.1618 14.60255840878843"}}, "geometry": {"type": "Point", "coordinates": [165.18843685534821, -81.39844047778972]}}, {"type": "Feature", "properties": {"norad_id": 36198, "name": "FENGYUN 1C DEB", "group": "fengyun-1c-debris", "lat": -38.15003554048127, "lon": -179.16133452273255, "alt_km": 858.67144367951, "timestamp": "2025-12-03T22:42:32.921957+00:00", "meta": {"OBJECT_NAME": "FENGYUN 1C DEB", "OBJECT_ID": "1999-025DTX", "EPOCH": "2025-12-01T13:23:36.508416", "MEAN_MOTION": 14.07811916, "ECCENTRICITY": 0.00972077, "INCLINATION": 98.6251, "RA_OF_ASC_NODE": 5.4045, "ARG_OF_PERICENTER": 146.6779, "MEAN_ANOMALY": 214.0561, "EPHEMERIS_TYPE": 0, "CLASSIFICATION_TYPE": "U", "NORAD_CAT_ID": 36198, "ELEMENT_SET_NO": 999, "REV_AT_EPOCH": 63430, "BSTAR": 0.0014591366, "MEAN_MOTION_DOT": 2.541e-05, "MEAN_MOTION_DDOT": 0}, "tle": {"line1": "1 36198U 99025DTX 25335.55806144  .00002541  00000+0  14591-2 0  9996", "line2": "2 36198  98.6251   5.4045 0097207 146.6779 214.0561 14.07811916634306"}}, "geometry": {"type": "Point", "coordinates": [-179.16133452273255, -38.15003554048127]}}, {"type": "Feature", "properties": {"norad_id": 36199, "name": "FENGYUN 1C DEB", "group": "fengyun-1c-debris", "lat": 76.89047271449358, "lon": -141.7226075612885, "alt_km": 719.471968080371, "timestamp": "2025-12-03T22:42:32.921967+00:00", "meta": {"OBJECT_NAME": "FENGYUN 1C DEB", "OBJECT_ID": "1999-025DTY", "EPOCH": "2025-11-25T07:38:24.665856", "MEAN_MOTION": 14.29614285, "ECCENTRICITY": 0.00930984, "INCLINATION": 98.2914, "RA_OF_ASC_NODE": 351.2942, "ARG_OF_PERICENTER": 118.486, "MEAN_ANOMALY": 242.5739, "EPHEMERIS_TYPE": 0, "CLASSIFICATION_TYPE": "U", "NORAD_CAT_ID": 36199, "ELEMENT_SET_NO": 999, "REV_AT_EPOCH": 64731, "BSTAR": 0.00030160311, "MEAN_MOTION_DOT": 7.69e-06, "MEAN_MOTION_DDOT": 0}, "tle": {"line1": "1 36199U 99025DTY 25329.31834104  .00000769  00000+0  30160-3 0  9992", "line2": "2 36199  98.2914 351.2942 0093098 118.4860 242.5739 14.29614285647311"}}, "geometry": {"type": "Point", "coordinates": [-141.7226075612885, 76.89047271449358]}}, {"type": "Feature", "properties": {"norad_id": 36200, "name": "FENGYUN 1C DEB", "group": "fengyun-1c-debris", "lat": 54.646204448820626, "lon": 37.28978276963849, "alt_km": 671.6667311732745, "timestamp": "2025-12-03T22:42:32.921976+00:00", "meta": {"OBJECT_NAME": "FENGYUN 1C DEB", "OBJECT_ID": "1999-025DTZ", "EPOCH": "2025-12-03T10:55:39.061344", "MEAN_MOTION": 14.58084214, "ECCENTRICITY": 0.0033563, "INCLINATION": 99.3879, "RA_OF_ASC_NODE": 50.2216, "ARG_OF_PERICENTER": 37.7961, "MEAN_ANOMALY": 322.5582, "EPHEMERIS_TYPE": 0, "CLASSIFICATION_TYPE": "U", "NORAD_CAT_ID": 36200, "ELEMENT_SET_NO": 999, "REV_AT_EPOCH": 73225, "BSTAR": 0.0051485, "MEAN_MOTION_DOT": 0.00023905, "MEAN_MOTION_DDOT": 0}, "tle": {"line1": "1 36200U 99025DTZ 25337.45531321  .00023905  00000+0  51485-2 0  9993", "line2": "2 36200  99.3879  50.2216 0033563  37.7961 322.5582 14.58084214732250"}}, "geometry": {"type": "Point", "coordinates": [37.28978276963849, 54.646204448820626]}}, {"type": "Feature", "properties": {"norad_id": 36203, "name": "FENGYUN 1C DEB", "group": "fengyun-1c-debris", "lat": 60.8073127549, "lon": 117.25113877153076, "alt_km": 598.4238236061947, "timestamp": "2025-12-03T22:42:32.921985+00:00", "meta": {"OBJECT_NAME": "FENGYUN 1C DEB", "OBJECT_ID": "1999-025DUC", "EPOCH": "2025-12-02T02:18:32.511168", "MEAN_MOTION": 14.78101467, "ECCENTRICITY": 0.00828267, "INCLINATION": 99.0947, "RA_OF_ASC_NODE": 278.5034, "ARG_OF_PERICENTER": 181.911, "MEAN_ANOMALY": 178.1793, "EPHEMERIS_TYPE": 0, "CLASSIFICATION_TYPE": "U", "NORAD_CAT_ID": 36203, "ELEMENT_SET_NO": 999, "REV_AT_EPOCH": 63272, "BSTAR": 0.0013137928, "MEAN_MOTION_DOT": 0.00010006, "MEAN_MOTION_DDOT": 0}, "tle": {"line1": "1 36203U 99025DUC 25336.09620962  .00010006  00000+0  13138-2 0  9996", "line2": "2 36203  99.0947 278.5034 0082826 181.9110 178.1793 14.78101467632725"}}, "geometry": {"type": "Point", "coordinates": [117.25113877153076, 60.8073127549]}}, {"type": "Feature", "properties": {"norad_id": 36204, "name": "FENGYUN 1C DEB", "group": "fengyun-1c-debris", "lat": -15.011057767052783, "lon": -108.15320467484027, "alt_km": 767.9013998232758, "timestamp": "2025-12-03T22:42:32.921994+00:00", "meta": {"OBJECT_NAME": "FENGYUN 1C DEB", "OBJECT_ID": "1999-025DUD", "EPOCH": "2025-11-15T00:07:08.690880", "MEAN_MOTION": 14.34305453, "ECCENTRICITY": 0.00191329, "INCLINATION": 99.2913, "RA_OF_ASC_NODE": 54.0163, "ARG_OF_PERICENTER": 239.43, "MEAN_ANOMALY": 120.4995, "EPHEMERIS_TYPE": 0, "CLASSIFICATION_TYPE": "U", "NORAD_CAT_ID": 36204, "ELEMENT_SET_NO": 999, "REV_AT_EPOCH": 94030, "BSTAR": 0.0018806033, "MEAN_MOTION_DOT": 5.247e-05, "MEAN_MOTION_DDOT": 0}, "tle": {"line1": "1 36204U 99025DUD 25319.00496170  .00005247  00000+0  18806-2 0  9999", "line2": "2 36204  99.2913  54.0163 0019132 239.4300 120.4995 14.34305453940304"}}, "geometry": {"type": "Point", "coordinates": [-108.15320467484027, -15.011057767052783]}}, {"type": "Feature", "properties": {"norad_id": 36206, "name": "FENGYUN 1C DEB", "group": "fengyun-1c-debris", "lat": -76.72823307672361, "lon": 142.20527407099252, "alt_km": 845.8126162542712, "timestamp": "2025-12-03T22:42:32.922003+00:00", "meta": {"OBJECT_NAME": "FENGYUN 1C DEB", "OBJECT_ID": "1999-025DUF", "EPOCH": "2025-11-26T07:02:56.668416", "MEAN_MOTION": 14.21517518, "ECCENTRICITY": 0.00312218, "INCLINATION": 98.4807, "RA_OF_ASC_NODE": 354.0922, "ARG_OF_PERICENTER": 66.8272, "MEAN_ANOMALY": 293.619, "EPHEMERIS_TYPE": 0, "CLASSIFICATION_TYPE": "U", "NORAD_CAT_ID": 36206, "ELEMENT_SET_NO": 999, "REV_AT_EPOCH": 64187, "BSTAR": 0.00073137291, "MEAN_MOTION_DOT": 1.568e-05, "MEAN_MOTION_DDOT": 0}, "tle": {"line1": "1 36206U 99025DUF 25330.29371144  .00001568  00000+0  73137-3 0  9999", "line2": "2 36206  98.4807 354.0922 0031221  66.8272 293.6190 14.21517518641871"}}, "geometry": {"type": "Point", "coordinates": [142.20527407099252, -76.72823307672361]}}]}